STARLINK-31078          
1 58638U 23203W   26068.06535435 -.00001010  00000+0 -27170-4 0  9997
2 58638  43.0038  70.8133 0001097 233.2401 126.8350 15.27582184123468
KUIPER-00209            
1 67776U 26030N   26068.61786546  .00035298  00000+0  11963-2 0  9997
2 67776  51.8838 220.0775 0012191  59.1967 301.0215 15.30161950  5077
